NORAD_CAT_ID,OBJECT_NAME,OBJECT_TYPE,EPOCH,MEAN_MOTION,ECCENTRICITY,INCLINATION,RA_OF_ASC_NODE,ARG_OF_PERICENTER,MEAN_ANOMALY,BSTAR,MEAN_MOTION_DOT,MEAN_MOTION_DDOT,TLE_LINE0,TLE_LINE1,TLE_LINE2,SEMIMAJOR_AXIS,PERIOD,APOGEE,PERIGEE,DECAYED
52603.0,STARLINK-4016,PAYLOAD,2022-08-25 18:00:00,15.08854263,0.0001806,53.2183,318.8553,49.2156,211.4036,-0.0016889,-0.00027077,0.0,0 STARLINK-4016,1 52603U 22052F   22237.75001157 -.00027077  00000-0 -16889-2 0  9998,2 52603  53.2183 318.8553 0001806  49.2156 211.4036 15.08854263 16180,6917.837,95.437,540.951,538.452,0.0
52603.0,STARLINK-4016,PAYLOAD,2022-08-25 22:00:00,15.08848212,0.0001709,53.2186,318.1061,51.7332,34.6895,-0.0022718,-0.0003627,0.0,0 STARLINK-4016,1 52603U 22052F   22237.91667824 -.00036270  00000-0 -22718-2 0  9998,2 52603  53.2186 318.1061 0001709  51.7332  34.6895 15.08848212  1309,6917.855,95.437,540.903,538.538,0.0
52603.0,STARLINK-4016,PAYLOAD,2022-08-26 12:00:00,15.08838994,0.000182,53.2186,315.4886,50.768,325.9325,-0.00083427,-0.00013541,0.0,0 STARLINK-4016,1 52603U 22052F   22238.50001157 -.00013541  00000-0 -83427-3 0  9996,2 52603  53.2186 315.4886 0001820  50.7680 325.9325 15.08838994 16309,6917.8830000000025,95.438,541.008,538.489,0.0
52603.0,STARLINK-4016,PAYLOAD,2022-08-26 14:00:01,15.08823665,0.0001836,53.2187,315.1148,49.6828,59.982,0.0012818,0.00020162,0.0,0 STARLINK-4016,1 52603U 22052F   22238.58335648  .00020162  00000-0  12818-2 0  9999,2 52603  53.2187 315.1148 0001836  49.6828  59.9820 15.08823665  1303,6917.93,95.439,541.065,538.525,0.0
52603.0,STARLINK-4016,PAYLOAD,2022-08-26 22:00:00,15.08851343,0.0001715,53.2187,313.6174,51.7883,69.3988,-0.0014081,-0.00022635,0.0,0 STARLINK-4016,1 52603U 22052F   22238.91667824 -.00022635  00000-0 -14081-2 0  9993,2 52603  53.2187 313.6174 0001715  51.7883  69.3988 15.08851343  1300,6917.846,95.437,540.8969999999998,538.524,0.0
52603.0,STARLINK-4016,PAYLOAD,2022-08-27 14:00:01,15.08835097,0.0001825,53.2186,310.6261,48.6334,95.7605,0.0014267,0.00022488,0.0,0 STARLINK-4016,1 52603U 22052F   22239.58334491  .00022488  00000-0  14267-2 0  9998,2 52603  53.2186 310.6261 0001825  48.6334  95.7605 15.08835097  1308,6917.895,95.438,541.023,538.498,0.0
52603.0,STARLINK-4016,PAYLOAD,2022-08-27 22:00:00,15.08856326,0.0001628,53.2184,309.1284,50.4638,105.5326,-0.0033042,-0.00052515,0.0,0 STARLINK-4016,1 52603U 22052F   22239.91667824 -.00052515  00000-0 -33042-2 0  9992,2 52603  53.2184 309.1284 0001628  50.4638 105.5326 15.08856326  1301,6917.83,95.437,540.822,538.569,0.0
52603.0,STARLINK-4016,PAYLOAD,2022-08-28 04:00:00,15.08821108,0.0001559,53.2183,308.0056,53.8881,20.8103,0.0019750999999999,0.00031269,0.0,0 STARLINK-4016,1 52603U 22052F   22240.16667824  .00031269  00000-0  19751-2 0  9993,2 52603  53.2183 308.0056 0001559  53.8881  20.8103 15.08821108 16550,6917.938,95.439,540.882,538.725,0.0
52603.0,STARLINK-4016,PAYLOAD,2022-08-28 14:00:01,15.08817857,0.0001737,53.2181,306.1373,46.1921,132.996,0.0022698,0.00035999,0.0,0 STARLINK-4016,1 52603U 22052F   22240.58334491  .00035999  00000-0  22698-2 0  9998,2 52603  53.2181 306.1373 0001737  46.1921 132.9960 15.08817857  1306,6917.948,95.439,541.015,538.611,0.0
52603.0,STARLINK-4016,PAYLOAD,2022-08-28 20:00:01,15.08854838,0.0001652,53.2177,305.014,48.3045,49.5656,-0.0018680999999999,-0.00029908,0.0,0 STARLINK-4016,1 52603U 22052F   22240.83334491 -.00029908  00000-0 -18681-2 0  9998,2 52603  53.2177 305.0140 0001652  48.3045  49.5656 15.08854838 16657,6917.835,95.437,540.8430000000002,538.557,0.0
52603.0,STARLINK-4016,PAYLOAD,2022-08-28 22:00:00,15.08843882,0.0001582,53.2178,304.6395,50.3191,140.4543,-0.0005546,-9.105e-05,0.0,0 STARLINK-4016,1 52603U 22052F   22240.91667824 -.00009105  00000-0 -55460-3 0  9990,2 52603  53.2178 304.6395 0001582  50.3191 140.4543 15.08843882  1301,6917.869000000002,95.437,540.828,538.639,0.0
52603.0,STARLINK-4016,PAYLOAD,2022-08-29 14:00:01,15.0879794,0.0001827,53.2174,301.6484,49.1918,164.7745,0.0025305999999999,0.0004016999999999,0.0,0 STARLINK-4016,1 52603U 22052F   22241.58334491  .00040170  00000-0  25306-2 0  9995,2 52603  53.2174 301.6484 0001827  49.1918 164.7745 15.08797940  1304,6918.009,95.44,541.138,538.61,0.0
52603.0,STARLINK-4016,PAYLOAD,2022-08-29 20:00:01,15.08836162,0.0001738,53.2169,300.5249,51.8694,80.7633,-0.0019352999999999,-0.00030953,0.0,0 STARLINK-4016,1 52603U 22052F   22241.83334491 -.00030953  00000-0 -19353-2 0  9998,2 52603  53.2169 300.5249 0001738  51.8694  80.7633 15.08836162 16801,6917.892,95.438,540.9590000000002,538.555,0.0
52603.0,STARLINK-4016,PAYLOAD,2022-08-29 22:00:00,15.08821412,0.0001676999999999,53.217,300.1504,53.4017,172.13,-0.00016516,-2.914e-05,0.0,0 STARLINK-4016,1 52603U 22052F   22241.91667824 -.00002914  00000-0 -16516-3 0  9991,2 52603  53.2170 300.1504 0001677  53.4017 172.1300 15.08821412  1300,6917.937,95.439,540.962,538.6419999999998,0.0
52603.0,STARLINK-4016,PAYLOAD,2022-08-30 04:00:00,15.08826128,0.0001689,53.217,299.0278,57.9839,86.2253,0.00096369,0.00015077,0.0,0 STARLINK-4016,1 52603U 22052F   22242.16667824  .00015077  00000-0  96369-3 0  9995,2 52603  53.2170 299.0278 0001689  57.9839  86.2253 15.08826128 16855,6917.9230000000025,95.438,540.956,538.619,0.0
52603.0,STARLINK-4016,PAYLOAD,2022-08-30 14:00:01,15.08806889,0.000186,53.2167,297.1593,49.4132,199.2786,0.0028008,0.00044528,0.0,0 STARLINK-4016,1 52603U 22052F   22242.58334491  .00044528  00000-0  28008-2 0  9999,2 52603  53.2167 297.1593 0001860  49.4132 199.2786 15.08806889  1305,6917.982,95.44,541.133,538.56,0.0
52603.0,STARLINK-4016,PAYLOAD,2022-08-30 20:00:01,15.0884745,0.000176,53.2164,296.0356,52.1637,115.2057,-0.0017453,-0.00027963,0.0,0 STARLINK-4016,1 52603U 22052F   22242.83334491 -.00027963  00000-0 -17453-2 0  9995,2 52603  53.2164 296.0356 0001760  52.1637 115.2057 15.08847450 16952,6917.858,95.437,540.94,538.505,0.0
52603.0,STARLINK-4016,PAYLOAD,2022-08-30 22:00:00,15.08828734,0.0001716,53.2166,295.6611,53.453,206.8199,0.00041233,6.278e-05,0.0,0 STARLINK-4016,1 52603U 22052F   22242.91667824  .00006278  00000-0  41233-3 0  9991,2 52603  53.2166 295.6611 0001716  53.4530 206.8199 15.08828734  1301,6917.915,95.438,540.967,538.5930000000002,0.0
52603.0,STARLINK-4016,PAYLOAD,2022-08-31 12:00:00,15.08828162,0.0001918,53.2165,293.0439,50.4235,140.1347,0.001313,0.00020663,0.0,0 STARLINK-4016,1 52603U 22052F   22243.50001157  .00020663  00000-0  13130-2 0  9996,2 52603  53.2165 293.0439 0001918  50.4235 140.1347 15.08828162 17052,6917.917,95.438,541.1080000000002,538.455,0.0
52603.0,STARLINK-4016,PAYLOAD,2022-08-31 14:00:01,15.08819028,0.0001919,53.2164,292.6699,49.1401,234.3184,0.0029552,0.00047031,0.0,0 STARLINK-4016,1 52603U 22052F   22243.58334491  .00047031  00000-0  29552-2 0  9997,2 52603  53.2164 292.6699 0001919  49.1401 234.3184 15.08819028  1302,6917.944,95.439,541.137,538.482,0.0
52603.0,STARLINK-4016,PAYLOAD,2022-08-31 22:00:00,15.08835879,0.0001786999999999,53.2166,291.1716,53.2053,241.8502,0.0010126,0.00015862,0.0,0 STARLINK-4016,1 52603U 22052F   22243.91667824  .00015862  00000-0  10126-2 0  9997,2 52603  53.2166 291.1716 0001787  53.2053 241.8502 15.08835879  1309,6917.893,95.438,540.994,538.5219999999998,0.0
52603.0,STARLINK-4016,PAYLOAD,2022-09-01 12:00:00,15.08847688,0.0001976999999999,53.2167,288.5543,49.1448,176.2175,-0.00046536,-7.688e-05,0.0,0 STARLINK-4016,1 52603U 22052F   22244.50001157 -.00007688  00000-0 -46536-3 0  9998,2 52603  53.2167 288.5543 0001977  49.1448 176.2175 15.08847688 17205,6917.857,95.437,541.09,538.354,0.0
52603.0,STARLINK-4016,PAYLOAD,2022-09-01 14:00:01,15.08843138,0.0001940999999999,53.2166,288.1802,47.3982,270.9306,-6.2845e-05,-1.288e-05,0.0,0 STARLINK-4016,1 52603U 22052F   22244.58335648 -.00001288  00000-0 -62845-4 0  9993,2 52603  53.2166 288.1802 0001941  47.3982 270.9306 15.08843138  1300,6917.871,95.437,541.0790000000002,538.393,0.0
52603.0,STARLINK-4016,PAYLOAD,2022-09-01 22:00:00,15.08816121,0.0001766,53.2169,286.682,50.8465,279.0265,0.0016154,0.00025498,0.0,0 STARLINK-4016,1 52603U 22052F   22244.91667824  .00025498  00000-0  16154-2 0  9991,2 52603  53.2169 286.6820 0001766  50.8465 279.0265 15.08816121  1302,6917.953,95.439,541.04,538.597,0.0
52603.0,STARLINK-4016,PAYLOAD,2022-09-02 12:00:02,15.0881737,0.0002009999999999,53.2172,284.0649,47.3019,212.9055,0.0021789,0.00034538,0.0,0 STARLINK-4016,1 52603U 22052F   22245.50002315  .00034538  00000-0  21789-2 0  9990,2 52603  53.2172 284.0649 0002010  47.3019 212.9055 15.08817370 17358,6917.95,95.439,541.205,538.424,0.0
52603.0,STARLINK-4016,PAYLOAD,2022-09-02 14:00:01,15.08818413,0.0001981,53.2171,283.6908,46.0082,307.0318,0.0025559999999999,0.00040602,0.0,0 STARLINK-4016,1 52603U 22052F   22245.58334491  .00040602  00000-0  25560-2 0  9991,2 52603  53.2171 283.6908 0001981  46.0082 307.0318 15.08818413  1307,6917.946,95.439,541.182,538.441,0.0
52603.0,STARLINK-4016,PAYLOAD,2022-09-02 22:00:01,15.08821639,0.0001825,53.2174,282.1926,51.3784,313.3184,0.0020375999999999,0.00032273,0.0,0 STARLINK-4016,1 52603U 22052F   22245.91668981  .00032273  00000-0  20376-2 0  9997,2 52603  53.2174 282.1926 0001825  51.3784 313.3184 15.08821639  1304,6917.937,95.439,541.064,538.539,0.0
52603.0,STARLINK-4016,PAYLOAD,2022-09-03 04:00:00,15.08853521,0.0001865999999999,53.2176,281.0706,53.3868,229.9304,-0.00040629,-6.751e-05,0.0,0 STARLINK-4016,1 52603U 22052F   22246.16667824 -.00006751  00000-0 -40629-3 0  9998,2 52603  53.2176 281.0706 0001866  53.3868 229.9304 15.08853521 17465,6917.839,95.437,540.995,538.413,0.0
52603.0,STARLINK-4016,PAYLOAD,2022-09-03 14:00:01,15.08833564,0.0002017,53.2174,279.2016,46.0596,341.76800000000014,0.0022171,0.00035168,0.0,0 STARLINK-4016,1 52603U 22052F   22246.58334491  .00035168  00000-0  22171-2 0  9998,2 52603  53.2174 279.2016 0002017  46.0596 341.7680 15.08833564  1303,6917.9,95.438,541.16,538.37,0.0
